{
  "links" : {
    "next" : "https://api.nasa.gov/neo/rest/v1/feed?start_date=2011-12-16&end_date=2011-12-16&detailed=true&api_key=t0TVs3DtDT2H8Oy2Zy8m2eVrNsAVKAexjcZXUckd",
    "prev" : "https://api.nasa.gov/neo/rest/v1/feed?start_date=2011-12-14&end_date=2011-12-14&detailed=true&api_key=t0TVs3DtDT2H8Oy2Zy8m2eVrNsAVKAexjcZXUckd",
    "self" : "https://api.nasa.gov/neo/rest/v1/feed?start_date=2011-12-15&end_date=2011-12-15&detailed=true&api_key=t0TVs3DtDT2H8Oy2Zy8m2eVrNsAVKAexjcZXUckd"
  },
  "element_count" : 3,
  "near_earth_objects" : {
    "2011-12-15" : [ {
      "links" : {
        "self" : "https://api.nasa.gov/neo/rest/v1/neo/2367638?api_key=t0TVs3DtDT2H8Oy2Zy8m2eVrNsAVKAexjcZXUckd"
      },
      "neo_reference_id" : "2367638",
      "name" : "367638 (2009 WR6)",
      "nasa_jpl_url" : "http://ssd.jpl.nasa.gov/sbdb.cgi?sstr=2367638",
      "absolute_magnitude_h" : 18.4,
      "estimated_diameter" : {
        "kilometers" : {
          "estimated_diameter_min" : 0.5553349116,
          "estimated_diameter_max" : 1.2417666126
        },
        "meters" : {
          "estimated_diameter_min" : 555.334911581,
          "estimated_diameter_max" : 1241.766612574
        },
        "miles" : {
          "estimated_diameter_min" : 0.3450690093,
          "estimated_diameter_max" : 0.7715977618
        },
        "feet" : {
          "estimated_diameter_min" : 1821.9649913114,
          "estimated_diameter_max" : 4074.0375731972
        }
      },
      "is_potentially_hazardous_asteroid" : false,
      "close_approach_data" : [ {
        "close_approach_date" : "2011-12-15",
        "epoch_date_close_approach" : 1323936000000,
        "relative_velocity" : {
          "kilometers_per_second" : "16.5423200362",
          "kilometers_per_hour" : "59552.352130284",
          "miles_per_hour" : "37003.5156889534"
        },
        "miss_distance" : {
          "astronomical" : "0.4807462405",
          "lunar" : "187.0102844238",
          "kilometers" : "71918616",
          "miles" : "44688156"
        },
        "orbiting_body" : "Earth"
      } ],
      "orbital_data" : {
        "orbit_id" : "49",
        "orbit_determination_date" : "2017-04-06 09:22:36",
        "orbit_uncertainty" : "0",
        "minimum_orbit_intersection" : ".346206",
        "jupiter_tisserand_invariant" : "4.100",
        "epoch_osculation" : "2458000.5",
        "eccentricity" : ".2773845751715793",
        "semi_major_axis" : "1.663462437891603",
        "inclination" : "26.49635375099378",
        "ascending_node_longitude" : "284.8644291983322",
        "orbital_period" : "783.6423978652319",
        "perihelion_distance" : "1.202043616243161",
        "perihelion_argument" : "114.8148493137705",
        "aphelion_distance" : "2.124881259540045",
        "perihelion_time" : "2458231.100323586602",
        "mean_anomaly" : "254.0637761339534",
        "mean_motion" : ".4593932142782192",
        "equinox" : "J2000"
      }
    }, {
      "links" : {
        "self" : "https://api.nasa.gov/neo/rest/v1/neo/3562834?api_key=t0TVs3DtDT2H8Oy2Zy8m2eVrNsAVKAexjcZXUckd"
      },
      "neo_reference_id" : "3562834",
      "name" : "(2011 GD60)",
      "nasa_jpl_url" : "http://ssd.jpl.nasa.gov/sbdb.cgi?sstr=3562834",
      "absolute_magnitude_h" : 21.7,
      "estimated_diameter" : {
        "kilometers" : {
          "estimated_diameter_min" : 0.1214940408,
          "estimated_diameter_max" : 0.2716689341
        },
        "meters" : {
          "estimated_diameter_min" : 121.4940407996,
          "estimated_diameter_max" : 271.6689340891
        },
        "miles" : {
          "estimated_diameter_min" : 0.0754928736,
          "estimated_diameter_max" : 0.1688071972
        },
        "feet" : {
          "estimated_diameter_min" : 398.6025088171,
          "estimated_diameter_max" : 891.3023057169
        }
      },
      "is_potentially_hazardous_asteroid" : false,
      "close_approach_data" : [ {
        "close_approach_date" : "2011-12-15",
        "epoch_date_close_approach" : 1323936000000,
        "relative_velocity" : {
          "kilometers_per_second" : "4.9232687247",
          "kilometers_per_hour" : "17723.7674087824",
          "miles_per_hour" : "11012.859810196"
        },
        "miss_distance" : {
          "astronomical" : "0.1892347745",
          "lunar" : "73.6123275757",
          "kilometers" : "28309120",
          "miles" : "17590472"
        },
        "orbiting_body" : "Earth"
      } ],
      "orbital_data" : {
        "orbit_id" : "16",
        "orbit_determination_date" : "2017-04-06 08:53:45",
        "orbit_uncertainty" : "4",
        "minimum_orbit_intersection" : ".064576",
        "jupiter_tisserand_invariant" : "5.698",
        "epoch_osculation" : "2458000.5",
        "eccentricity" : ".162453461285589",
        "semi_major_axis" : "1.083368313172558",
        "inclination" : "6.062000297560326",
        "ascending_node_longitude" : "115.0284764693211",
        "orbital_period" : "411.8723335858054",
        "perihelion_distance" : ".9073713808505459",
        "perihelion_argument" : "211.0964435025814",
        "aphelion_distance" : "1.25936524549457",
        "perihelion_time" : "2457851.714180207140",
        "mean_anomaly" : "130.0473247598475",
        "mean_motion" : ".8740572518328696",
        "equinox" : "J2000"
      }
    }, {
      "links" : {
        "self" : "https://api.nasa.gov/neo/rest/v1/neo/3595889?api_key=t0TVs3DtDT2H8Oy2Zy8m2eVrNsAVKAexjcZXUckd"
      },
      "neo_reference_id" : "3595889",
      "name" : "(2012 AC13)",
      "nasa_jpl_url" : "http://ssd.jpl.nasa.gov/sbdb.cgi?sstr=3595889",
      "absolute_magnitude_h" : 19.9,
      "estimated_diameter" : {
        "kilometers" : {
          "estimated_diameter_min" : 0.2783267681,
          "estimated_diameter_max" : 0.6223575734
        },
        "meters" : {
          "estimated_diameter_min" : 278.3267680719,
          "estimated_diameter_max" : 622.3575733667
        },
        "miles" : {
          "estimated_diameter_min" : 0.1729441822,
          "estimated_diameter_max" : 0.3867149477
        },
        "feet" : {
          "estimated_diameter_min" : 913.1455937611,
          "estimated_diameter_max" : 2041.8556210042
        }
      },
      "is_potentially_hazardous_asteroid" : false,
      "close_approach_data" : [ {
        "close_approach_date" : "2011-12-15",
        "epoch_date_close_approach" : 1323936000000,
        "relative_velocity" : {
          "kilometers_per_second" : "1.0416733752",
          "kilometers_per_hour" : "3750.0241507721",
          "miles_per_hour" : "2330.1191730172"
        },
        "miss_distance" : {
          "astronomical" : "0.4063614583",
          "lunar" : "158.0746154785",
          "kilometers" : "60790808",
          "miles" : "37773656"
        },
        "orbiting_body" : "Earth"
      } ],
      "orbital_data" : {
        "orbit_id" : "14",
        "orbit_determination_date" : "2017-04-06 08:51:27",
        "orbit_uncertainty" : "4",
        "minimum_orbit_intersection" : ".261594",
        "jupiter_tisserand_invariant" : "3.541",
        "epoch_osculation" : "2458000.5",
        "eccentricity" : ".431711242551104",
        "semi_major_axis" : "2.195593397140674",
        "inclination" : "1.857428766523393",
        "ascending_node_longitude" : "102.0108271240057",
        "orbital_period" : "1188.300557677372",
        "perihelion_distance" : "1.247731043524074",
        "perihelion_argument" : "316.4654666646846",
        "aphelion_distance" : "3.143455750757274",
        "perihelion_time" : "2458244.584268841852",
        "mean_anomaly" : "286.0537780485298",
        "mean_motion" : ".3029536573673318",
        "equinox" : "J2000"
      }
    } ]
  }
}